ONEWEB-0656             
1 55817U 23029X   26189.71932018  .00000057  00000+0  10772-3 0  9990
2 55817  87.9190 270.1400 0001997  86.6387 273.4975 13.20769867163994
ONEWEB-0657             
1 55818U 23029Y   26188.84683877 -.00004196  00000+0 -10525-1 0  9994
2 55818  87.9149 300.8589 0002875  65.6225 294.5208 13.19685404161636
ONEWEB-0658             
1 55819U 23029Z   26189.82767037  .00000038  00000+0  62200-4 0  9994
2 55819  87.9201 300.6404 0002226 113.2294 246.9074 13.19726104161776
ONEWEB-0660             
1 55820U 23029AA  26189.82021852 -.00000119  00000+0 -35620-3 0  9991
2 55820  87.8977 285.3901 0001796 107.5226 252.6100 13.14501989162244
ONEWEB-0661             
1 55821U 23029AB  26189.77900049  .00000136  00000+0  33180-3 0  9996
2 55821  87.8959 285.4386 0001750 104.1863 255.9462 13.14503040162228
ONEWEB-0662             
1 55822U 23029AC  26189.81388680  .00000020  00000+0  19696-4 0  9992
2 55822  87.8963 285.4368 0001855 111.2493 248.8835 13.14502009162272
ONEWEB-0663             
1 55823U 23029AD  26189.75142771  .00000007  00000+0 -14585-4 0  9993
2 55823  87.9192 270.2049 0002069 112.8684 247.2668 13.20871448163993
ONEWEB-0664             
1 55824U 23029AE  26189.78163222  .00000009  00000+0 -97973-5 0  9996
2 55824  87.9181 270.1772 0001594  99.5370 260.5944 13.20771360163996
ONEWEB-0665             
1 55825U 23029AF  26189.77582762  .00000028  00000+0  42004-4 0  9994
2 55825  87.8957 285.4205 0001917 110.8905 249.2430 13.14502355162247
ONEWEB-0666             
1 55826U 23029AG  26189.77488301  .00000044  00000+0  75897-4 0  9993
2 55826  87.9182 270.1683 0002642  89.1796 270.9640 13.20772685164004
ONEWEB-0667             
1 55827U 23029AH  26189.76983238 -.00000044  00000+0 -14005-3 0  9997
2 55827  87.9198 270.1305 0001944 104.9174 255.2174 13.20772928163998
ONEWEB-0669             
1 55828U 23029AJ  26189.76477486  .00000006  00000+0 -17621-4 0  9996
2 55828  87.9189 270.1414 0001778  86.4781 273.6556 13.20772988163997
ONEWEB-0670             
1 55829U 23029AK  26189.75362289 -.00000159  00000+0 -46317-3 0  9993
2 55829  87.8953 285.4426 0001549 101.8777 258.2527 13.14501369162263
ONEWEB-0671             
1 55830U 23029AL  26189.82292360  .00000011  00000+0 -49636-5 0  9990
2 55830  87.9180 300.6676 0001919 108.6141 251.5200 13.19725579161759
ONEWEB-0672             
1 55831U 23029AM  26189.75972425  .00000013  00000+0 -17982-6 0  9992
2 55831  87.9192 270.1358 0002110  94.6122 265.5252 13.20769789163991
ONEWEB-0673             
1 55832U 23029AN  26189.80001547  .00000090  00000+0  19129-3 0  9993
2 55832  87.9192 300.6642 0001836 103.5696 256.5641 13.19724917161753
