{"fetched_at":"2026-07-09T18:16:42.472Z","source":"https://celestrak.org/NORAD/elements/gp.php?GROUP=oneweb&FORMAT=JSON","constellation":"oneweb","records":[{"OBJECT_NAME":"ONEWEB-0656","OBJECT_ID":"2023-029X","EPOCH":"2026-07-08T17:15:49.263552","CLASSIFICATION_TYPE":"U","MEAN_MOTION":13.20769867,"ECCENTRICITY":0.00019976,"INCLINATION":87.919,"RA_OF_ASC_NODE":270.14,"ARG_OF_PERICENTER":86.6387,"MEAN_ANOMALY":273.4975,"EPHEMERIS_TYPE":0,"NORAD_CAT_ID":55817,"ELEMENT_SET_NO":999,"REV_AT_EPOCH":16399,"BSTAR":0.00010771968,"MEAN_MOTION_DOT":5.7e-7,"MEAN_MOTION_DDOT":0},{"OBJECT_NAME":"ONEWEB-0657","OBJECT_ID":"2023-029Y","EPOCH":"2026-07-07T20:19:26.869728","CLASSIFICATION_TYPE":"U","MEAN_MOTION":13.19685404,"ECCENTRICITY":0.00028754,"INCLINATION":87.9149,"RA_OF_ASC_NODE":300.8589,"ARG_OF_PERICENTER":65.6225,"MEAN_ANOMALY":294.5208,"EPHEMERIS_TYPE":0,"NORAD_CAT_ID":55818,"ELEMENT_SET_NO":999,"REV_AT_EPOCH":16163,"BSTAR":-0.010524779,"MEAN_MOTION_DOT":-0.00004196,"MEAN_MOTION_DDOT":0},{"OBJECT_NAME":"ONEWEB-0658","OBJECT_ID":"2023-029Z","EPOCH":"2026-07-08T19:51:50.719968","CLASSIFICATION_TYPE":"U","MEAN_MOTION":13.19726104,"ECCENTRICITY":0.00022266,"INCLINATION":87.9201,"RA_OF_ASC_NODE":300.6404,"ARG_OF_PERICENTER":113.2294,"MEAN_ANOMALY":246.9074,"EPHEMERIS_TYPE":0,"NORAD_CAT_ID":55819,"ELEMENT_SET_NO":999,"REV_AT_EPOCH":16177,"BSTAR":0.000062200463,"MEAN_MOTION_DOT":3.8e-7,"MEAN_MOTION_DDOT":0},{"OBJECT_NAME":"ONEWEB-0660","OBJECT_ID":"2023-029AA","EPOCH":"2026-07-08T19:41:06.880128","CLASSIFICATION_TYPE":"U","MEAN_MOTION":13.14501989,"ECCENTRICITY":0.00017968,"INCLINATION":87.8977,"RA_OF_ASC_NODE":285.3901,"ARG_OF_PERICENTER":107.5226,"MEAN_ANOMALY":252.61,"EPHEMERIS_TYPE":0,"NORAD_CAT_ID":55820,"ELEMENT_SET_NO":999,"REV_AT_EPOCH":16224,"BSTAR":-0.00035619935,"MEAN_MOTION_DOT":-0.00000119,"MEAN_MOTION_DDOT":0},{"OBJECT_NAME":"ONEWEB-0661","OBJECT_ID":"2023-029AB","EPOCH":"2026-07-08T18:41:45.642336","CLASSIFICATION_TYPE":"U","MEAN_MOTION":13.1450304,"ECCENTRICITY":0.000175,"INCLINATION":87.8959,"RA_OF_ASC_NODE":285.4386,"ARG_OF_PERICENTER":104.1863,"MEAN_ANOMALY":255.9462,"EPHEMERIS_TYPE":0,"NORAD_CAT_ID":55821,"ELEMENT_SET_NO":999,"REV_AT_EPOCH":16222,"BSTAR":0.00033179983,"MEAN_MOTION_DOT":0.00000136,"MEAN_MOTION_DDOT":0},{"OBJECT_NAME":"ONEWEB-0662","OBJECT_ID":"2023-029AC","EPOCH":"2026-07-08T19:31:59.819520","CLASSIFICATION_TYPE":"U","MEAN_MOTION":13.14502009,"ECCENTRICITY":0.00018557,"INCLINATION":87.8963,"RA_OF_ASC_NODE":285.4368,"ARG_OF_PERICENTER":111.2493,"MEAN_ANOMALY":248.8835,"EPHEMERIS_TYPE":0,"NORAD_CAT_ID":55822,"ELEMENT_SET_NO":999,"REV_AT_EPOCH":16227,"BSTAR":0.000019695527,"MEAN_MOTION_DOT":2e-7,"MEAN_MOTION_DDOT":0},{"OBJECT_NAME":"ONEWEB-0663","OBJECT_ID":"2023-029AD","EPOCH":"2026-07-08T18:02:03.354144","CLASSIFICATION_TYPE":"U","MEAN_MOTION":13.20871448,"ECCENTRICITY":0.0002069,"INCLINATION":87.9192,"RA_OF_ASC_NODE":270.2049,"ARG_OF_PERICENTER":112.8684,"MEAN_ANOMALY":247.2668,"EPHEMERIS_TYPE":0,"NORAD_CAT_ID":55823,"ELEMENT_SET_NO":999,"REV_AT_EPOCH":16399,"BSTAR":-0.000014585093,"MEAN_MOTION_DOT":7e-8,"MEAN_MOTION_DDOT":0},{"OBJECT_NAME":"ONEWEB-0664","OBJECT_ID":"2023-029AE","EPOCH":"2026-07-08T18:45:33.023808","CLASSIFICATION_TYPE":"U","MEAN_MOTION":13.2077136,"ECCENTRICITY":0.00015949,"INCLINATION":87.9181,"RA_OF_ASC_NODE":270.1772,"ARG_OF_PERICENTER":99.537,"MEAN_ANOMALY":260.5944,"EPHEMERIS_TYPE":0,"NORAD_CAT_ID":55824,"ELEMENT_SET_NO":999,"REV_AT_EPOCH":16399,"BSTAR":-0.000009797327,"MEAN_MOTION_DOT":9e-8,"MEAN_MOTION_DDOT":0},{"OBJECT_NAME":"ONEWEB-0665","OBJECT_ID":"2023-029AF","EPOCH":"2026-07-08T18:37:11.506368","CLASSIFICATION_TYPE":"U","MEAN_MOTION":13.14502355,"ECCENTRICITY":0.00019173,"INCLINATION":87.8957,"RA_OF_ASC_NODE":285.4205,"ARG_OF_PERICENTER":110.8905,"MEAN_ANOMALY":249.243,"EPHEMERIS_TYPE":0,"NORAD_CAT_ID":55825,"ELEMENT_SET_NO":999,"REV_AT_EPOCH":16224,"BSTAR":0.000042003896,"MEAN_MOTION_DOT":2.8e-7,"MEAN_MOTION_DDOT":0},{"OBJECT_NAME":"ONEWEB-0666","OBJECT_ID":"2023-029AG","EPOCH":"2026-07-08T18:35:49.892064","CLASSIFICATION_TYPE":"U","MEAN_MOTION":13.20772685,"ECCENTRICITY":0.00026426,"INCLINATION":87.9182,"RA_OF_ASC_NODE":270.1683,"ARG_OF_PERICENTER":89.1796,"MEAN_ANOMALY":270.964,"EPHEMERIS_TYPE":0,"NORAD_CAT_ID":55826,"ELEMENT_SET_NO":999,"REV_AT_EPOCH":16400,"BSTAR":0.000075896942,"MEAN_MOTION_DOT":4.4e-7,"MEAN_MOTION_DDOT":0},{"OBJECT_NAME":"ONEWEB-0667","OBJECT_ID":"2023-029AH","EPOCH":"2026-07-08T18:28:33.517632","CLASSIFICATION_TYPE":"U","MEAN_MOTION":13.20772928,"ECCENTRICITY":0.00019449,"INCLINATION":87.9198,"RA_OF_ASC_NODE":270.1305,"ARG_OF_PERICENTER":104.9174,"MEAN_ANOMALY":255.2174,"EPHEMERIS_TYPE":0,"NORAD_CAT_ID":55827,"ELEMENT_SET_NO":999,"REV_AT_EPOCH":16399,"BSTAR":-0.00014004579,"MEAN_MOTION_DOT":-4.4e-7,"MEAN_MOTION_DDOT":0},{"OBJECT_NAME":"ONEWEB-0669","OBJECT_ID":"2023-029AJ","EPOCH":"2026-07-08T18:21:16.547904","CLASSIFICATION_TYPE":"U","MEAN_MOTION":13.20772988,"ECCENTRICITY":0.00017784,"INCLINATION":87.9189,"RA_OF_ASC_NODE":270.1414,"ARG_OF_PERICENTER":86.4781,"MEAN_ANOMALY":273.6556,"EPHEMERIS_TYPE":0,"NORAD_CAT_ID":55828,"ELEMENT_SET_NO":999,"REV_AT_EPOCH":16399,"BSTAR":-0.000017621366,"MEAN_MOTION_DOT":6e-8,"MEAN_MOTION_DDOT":0},{"OBJECT_NAME":"ONEWEB-0670","OBJECT_ID":"2023-029AK","EPOCH":"2026-07-08T18:05:13.017696","CLASSIFICATION_TYPE":"U","MEAN_MOTION":13.14501369,"ECCENTRICITY":0.00015498,"INCLINATION":87.8953,"RA_OF_ASC_NODE":285.4426,"ARG_OF_PERICENTER":101.8777,"MEAN_ANOMALY":258.2527,"EPHEMERIS_TYPE":0,"NORAD_CAT_ID":55829,"ELEMENT_SET_NO":999,"REV_AT_EPOCH":16226,"BSTAR":-0.00046317362,"MEAN_MOTION_DOT":-0.00000159,"MEAN_MOTION_DDOT":0},{"OBJECT_NAME":"ONEWEB-0671","OBJECT_ID":"2023-029AL","EPOCH":"2026-07-08T19:45:00.599040","CLASSIFICATION_TYPE":"U","MEAN_MOTION":13.19725579,"ECCENTRICITY":0.00019193,"INCLINATION":87.918,"RA_OF_ASC_NODE":300.6676,"ARG_OF_PERICENTER":108.6141,"MEAN_ANOMALY":251.52,"EPHEMERIS_TYPE":0,"NORAD_CAT_ID":55830,"ELEMENT_SET_NO":999,"REV_AT_EPOCH":16175,"BSTAR":-0.000004963631,"MEAN_MOTION_DOT":1.1e-7,"MEAN_MOTION_DDOT":0},{"OBJECT_NAME":"ONEWEB-0672","OBJECT_ID":"2023-029AM","EPOCH":"2026-07-08T18:14:00.175200","CLASSIFICATION_TYPE":"U","MEAN_MOTION":13.20769789,"ECCENTRICITY":0.000211,"INCLINATION":87.9192,"RA_OF_ASC_NODE":270.1358,"ARG_OF_PERICENTER":94.6122,"MEAN_ANOMALY":265.5252,"EPHEMERIS_TYPE":0,"NORAD_CAT_ID":55831,"ELEMENT_SET_NO":999,"REV_AT_EPOCH":16399,"BSTAR":-1.79822e-7,"MEAN_MOTION_DOT":1.3e-7,"MEAN_MOTION_DDOT":0},{"OBJECT_NAME":"ONEWEB-0673","OBJECT_ID":"2023-029AN","EPOCH":"2026-07-08T19:12:01.336608","CLASSIFICATION_TYPE":"U","MEAN_MOTION":13.19724917,"ECCENTRICITY":0.00018369,"INCLINATION":87.9192,"RA_OF_ASC_NODE":300.6642,"ARG_OF_PERICENTER":103.5696,"MEAN_ANOMALY":256.5641,"EPHEMERIS_TYPE":0,"NORAD_CAT_ID":55832,"ELEMENT_SET_NO":999,"REV_AT_EPOCH":16175,"BSTAR":0.00019129457,"MEAN_MOTION_DOT":9e-7,"MEAN_MOTION_DDOT":0}]}
